SL-3 R/B                
1 13403U 82079B   26079.88781303  .00005981  00000+0  23686-3 0  9999
2 13403  81.1490 179.8557 0025398 127.6649 232.6894 15.24947143379407
SL-14 R/B               
1 13553U 82092B   26079.90454912  .00000377  00000+0  39630-4 0  9997
2 13553  82.5672 130.9093 0018753 263.4252 269.5004 14.86676034330593
SL-3 R/B                
1 13819U 83010B   26079.88941451  .00014228  00000+0  28235-3 0  9997
2 13819  81.1060 348.5149 0016902  13.8624 346.3081 15.46716088359677
SL-3 R/B                
1 14208U 83075B   26079.93872427  .00010453  00000+0  27384-3 0  9993
2 14208  97.6139  84.9438 0021324 184.1006 176.0067 15.38663370331882
COSMOS 1536             
1 14699U 84013A   26079.75133243  .00006082  00000+0  24961-3 0  9997
2 14699  82.5412  96.8503 0012668 239.3193 120.6797 15.23962261274302
SL-14 R/B               
1 14820U 84027B   26079.93844579  .00000445  00000+0  48096-4 0  9992
2 14820  82.5400 234.4608 0016628 298.5914  61.3629 14.85987600249307
SL-8 R/B                
1 15483U 85006B   26079.94047855  .00000309  00000+0  11093-3 0  9994
2 15483  74.0439 240.4438 0017985 155.1743 321.0777 14.37791290155642
SL-12 R/B(2)            
1 15772U 85042D   26079.95068075  .00000033  00000+0  36170-4 0  9991
2 15772  71.1070  63.9350 0032926 109.4950 317.7602 14.21985305115995
SL-14 R/B               
1 15945U 85069B   26079.31396521  .00000446  00000+0  47606-4 0  9996
2 15945  82.5300  14.9449 0019425 152.8819 207.3417 14.86444467174419
SL-16 R/B               
1 16182U 85097B   26079.88289800  .00000278  00000+0  16312-3 0  9996
2 16182  71.0013 116.9893 0009590 246.3199 286.5971 14.16600808 88813
SL-14 R/B               
1 16496U 86006B   26079.96128355  .00000706  00000+0  72496-4 0  9993
2 16496  82.5239 249.1256 0075300 234.7218 124.6940 14.86830870150881
COSMOS 1743             
1 16719U 86034A   26079.93896067  .00039868  00000+0  50354-3 0  9990
2 16719  82.5296  62.0146 0002657 200.4512 159.6639 15.59373093182006
